RADUGA 32               
1 23448U 94087A   13107.32705244 -.00000083  00000-0  10000-3 0  6159
2 23448  12.9273  36.1354 0005604 114.4488 245.5661  1.00283334 84728
RADUGA-1 4              
1 25642U 99010A   13109.41590788  .00000083  00000-0  10000-3 0  7065
2 25642  11.9455  49.6407 0001858  63.6926 296.2983  1.00338689 51788
RADUGA-1 5              
1 26477U 00049A   13109.40582075  .00000075  00000-0  10000-3 0  5749
2 26477   9.5622  49.9396 0003952   3.0840 356.8813  1.00218861 46298
RADUGA-1 7              
1 28194U 04010A   13106.37400565 -.00000204  00000-0  10000-3 0  6954
2 28194   7.0595  63.0784 0002936  12.6028 347.3801  1.00378973 33177
RADUGA-1M 1             
1 32373U 07058A   13109.87917475 -.00000046  00000-0  00000+0 0  5367
2 32373   0.0024  40.6481 0002056   8.9359 185.0543  1.00273231 20531
